{
  "norad_id": 57744,
  "name": "STARLINK-30363",
  "history": [
    {
      "epoch": "2026-03-28T14:41:05.408160Z",
      "apogee_km": 486.5131965150749,
      "perigee_km": 484.5419520493415,
      "latitude_deg": -2.542691780069655e-05,
      "longitude_deg": 4.530818308666752,
      "height_km": 485.5332945066511,
      "semi_major_axis_km": 6863.664574282208,
      "eccentricity": 0.0001436,
      "inclination_deg": 43.0078,
      "raan_deg": 50.8332,
      "arg_perigee_deg": 256.6189,
      "mean_anomaly_deg": 103.4502,
      "mean_motion_rev_day": 15.26752658
    }
  ]
}