{"fetched_at":"2026-03-29T16:36:15Z","count":15609,"tles":[{"name":"STARLINK-30363","line1":"1 57744U 23131N   26087.61186815  .00001524  00000+0  66474-4 0  9998","line2":"2 57744  43.0078  50.8332 0001436 256.6189 103.4502 15.26752658142989","category":"Starlink"}]}